STARLINK-31324          
1 58976U 24031M   26078.75727570  .00000007  00000+0  12361-4 0  9991
2 58976  53.1617 249.9933 0001055  71.1859 288.9256 15.30194626118053
STARLINK-31358          
1 58977U 24031N   26079.44302200  .00002785  00000+0  10614-3 0  9991
2 58977  53.1591 246.4428 0001181  90.9276 269.1860 15.30195082118169
STARLINK-31355          
1 58978U 24031P   26079.47890139  .00002401  00000+0  93163-4 0  9994
2 58978  53.1582 246.6750 0000645 289.2587  70.8344 15.30196948118168
STARLINK-31380          
1 58979U 24031Q   26079.48207050  .00000254  00000+0  20707-4 0  9998
2 58979  53.1611 246.6956 0001228  77.1299 282.9839 15.30197387118165
STARLINK-31353          
1 58980U 24031R   26079.47995719  .00000701  00000+0  35794-4 0  9994
2 58980  53.1598 246.6854 0001033  86.0142 274.0977 15.30195417118165
STARLINK-31339          
1 58981U 24031S   26079.48523583  .00000027  00000+0  13022-4 0  9993
2 58981  53.1610 246.7156 0000927  79.6623 280.4483 15.30193604118169
STARLINK-31384          
1 58983U 24031U   26079.49156510 -.00000287  00000+0  24196-5 0  9992
2 58983  53.1588 246.7544 0000908  89.8212 270.2892 15.30198157118161
STARLINK-31379          
1 58984U 24031V   26079.16921825 -.00005119  00000+0 -16076-3 0  9992
2 58984  53.1601 248.2961 0001836  58.9267 301.1914 15.30207426118110
STARLINK-31385          
1 58985U 24031W   26079.47098248  .00000317  00000+0  22815-4 0  9993
2 58985  53.1601 244.4578 0000782  68.7668 291.3416 15.30193752118197
STARLINK-31229          
1 58986U 24031X   26079.50214032 -.00005111  00000+0 -16075-3 0  9998
2 58986  53.1574 246.8197 0001057  90.1550 269.9571 15.30163740118169
STARLINK-31468          
1 58998U 24036A   26079.18165882  .00000566  00000+0  31242-4 0  9999
2 58998  53.1620  29.1167 0001423  94.2611 265.8553 15.30189356116943
STARLINK-31440          
1 58999U 24036B   26079.24907851  .00003271  00000+0  12253-3 0  9993
2 58999  53.1616  28.8174 0001231 111.7082 248.4050 15.30199357116139
STARLINK-31529          
1 59000U 24036C   26079.26649027 -.00000263  00000+0  32556-5 0  9996
2 59000  53.1618  26.8028 0001189  68.6220 291.4907 15.30199511116891
STARLINK-31431          
1 59002U 24036E   26079.29340330  .00000301  00000+0  22295-4 0  9996
2 59002  53.1625  29.0967 0001226  97.6580 262.4560 15.30195990116947
STARLINK-31435          
1 59004U 24036G   26079.11950273  .00000882  00000+0  41913-4 0  9994
2 59004  53.1613  29.4302 0001282  87.7740 272.3408 15.30197030116930
STARLINK-31484          
1 59005U 24036H   26079.12267404 -.00000098  00000+0  88313-5 0  9999
2 59005  53.1624  29.4482 0001162  85.3146 274.7988 15.30186629116923
STARLINK-31450          
1 59006U 24036J   26079.26065596  .00004266  00000+0  15597-3 0  9995
2 59006  53.1624  28.8869 0001488  93.3671 266.7500 15.30220901116944
