[{"OBJECT_NAME":"STARLINK-31324","OBJECT_ID":"2024-031M","EPOCH":"2026-03-19T18:10:28.620480","MEAN_MOTION":15.30194626,"ECCENTRICITY":0.00010552,"INCLINATION":53.1617,"RA_OF_ASC_NODE":249.9933,"ARG_OF_PERICENTER":71.1859,"MEAN_ANOMALY":288.9256,"EPHEMERIS_TYPE":0,"CLASSIFICATION_TYPE":"U","NORAD_CAT_ID":58976,"ELEMENT_SET_NO":999,"REV_AT_EPOCH":11805,"BSTAR":1.236135e-5,"MEAN_MOTION_DOT":7.0e-8,"MEAN_MOTION_DDOT":0},{"OBJECT_NAME":"STARLINK-31358","OBJECT_ID":"2024-031N","EPOCH":"2026-03-20T10:37:57.100800","MEAN_MOTION":15.30195082,"ECCENTRICITY":0.0001181,"INCLINATION":53.1591,"RA_OF_ASC_NODE":246.4428,"ARG_OF_PERICENTER":90.9276,"MEAN_ANOMALY":269.186,"EPHEMERIS_TYPE":0,"CLASSIFICATION_TYPE":"U","NORAD_CAT_ID":58977,"ELEMENT_SET_NO":999,"REV_AT_EPOCH":11816,"BSTAR":0.00010614,"MEAN_MOTION_DOT":2.785e-5,"MEAN_MOTION_DDOT":0},{"OBJECT_NAME":"STARLINK-31355","OBJECT_ID":"2024-031P","EPOCH":"2026-03-20T11:29:37.080096","MEAN_MOTION":15.30196948,"ECCENTRICITY":6.45e-5,"INCLINATION":53.1582,"RA_OF_ASC_NODE":246.675,"ARG_OF_PERICENTER":289.2587,"MEAN_ANOMALY":70.8344,"EPHEMERIS_TYPE":0,"CLASSIFICATION_TYPE":"U","NORAD_CAT_ID":58978,"ELEMENT_SET_NO":999,"REV_AT_EPOCH":11816,"BSTAR":9.3163e-5,"MEAN_MOTION_DOT":2.401e-5,"MEAN_MOTION_DDOT":0},{"OBJECT_NAME":"STARLINK-31380","OBJECT_ID":"2024-031Q","EPOCH":"2026-03-20T11:34:10.891200","MEAN_MOTION":15.30197387,"ECCENTRICITY":0.0001228,"INCLINATION":53.1611,"RA_OF_ASC_NODE":246.6956,"ARG_OF_PERICENTER":77.1299,"MEAN_ANOMALY":282.9839,"EPHEMERIS_TYPE":0,"CLASSIFICATION_TYPE":"U","NORAD_CAT_ID":58979,"ELEMENT_SET_NO":999,"REV_AT_EPOCH":11816,"BSTAR":2.0707e-5,"MEAN_MOTION_DOT":2.54e-6,"MEAN_MOTION_DDOT":0},{"OBJECT_NAME":"STARLINK-31353","OBJECT_ID":"2024-031R","EPOCH":"2026-03-20T11:31:08.301216","MEAN_MOTION":15.30195417,"ECCENTRICITY":0.0001033,"INCLINATION":53.1598,"RA_OF_ASC_NODE":246.6854,"ARG_OF_PERICENTER":86.0142,"MEAN_ANOMALY":274.0977,"EPHEMERIS_TYPE":0,"CLASSIFICATION_TYPE":"U","NORAD_CAT_ID":58980,"ELEMENT_SET_NO":999,"REV_AT_EPOCH":11816,"BSTAR":3.5794e-5,"MEAN_MOTION_DOT":7.01e-6,"MEAN_MOTION_DDOT":0},{"OBJECT_NAME":"STARLINK-31339","OBJECT_ID":"2024-031S","EPOCH":"2026-03-20T11:38:44.375712","MEAN_MOTION":15.30193604,"ECCENTRICITY":9.27e-5,"INCLINATION":53.161,"RA_OF_ASC_NODE":246.7156,"ARG_OF_PERICENTER":79.6623,"MEAN_ANOMALY":280.4483,"EPHEMERIS_TYPE":0,"CLASSIFICATION_TYPE":"U","NORAD_CAT_ID":58981,"ELEMENT_SET_NO":999,"REV_AT_EPOCH":11816,"BSTAR":1.3022e-5,"MEAN_MOTION_DOT":2.7e-7,"MEAN_MOTION_DDOT":0},{"OBJECT_NAME":"STARLINK-31384","OBJECT_ID":"2024-031U","EPOCH":"2026-03-20T11:47:51.224640","MEAN_MOTION":15.30198157,"ECCENTRICITY":9.08e-5,"INCLINATION":53.1588,"RA_OF_ASC_NODE":246.7544,"ARG_OF_PERICENTER":89.8212,"MEAN_ANOMALY":270.2892,"EPHEMERIS_TYPE":0,"CLASSIFICATION_TYPE":"U","NORAD_CAT_ID":58983,"ELEMENT_SET_NO":999,"REV_AT_EPOCH":11816,"BSTAR":2.4196e-6,"MEAN_MOTION_DOT":-2.87e-6,"MEAN_MOTION_DDOT":0},{"OBJECT_NAME":"STARLINK-31379","OBJECT_ID":"2024-031V","EPOCH":"2026-03-20T04:03:40.456800","MEAN_MOTION":15.30207426,"ECCENTRICITY":0.00018361,"INCLINATION":53.1601,"RA_OF_ASC_NODE":248.2961,"ARG_OF_PERICENTER":58.9267,"MEAN_ANOMALY":301.1914,"EPHEMERIS_TYPE":0,"CLASSIFICATION_TYPE":"U","NORAD_CAT_ID":58984,"ELEMENT_SET_NO":999,"REV_AT_EPOCH":11811,"BSTAR":-0.00016076057,"MEAN_MOTION_DOT":-5.119e-5,"MEAN_MOTION_DDOT":0},{"OBJECT_NAME":"STARLINK-31385","OBJECT_ID":"2024-031W","EPOCH":"2026-03-20T11:18:12.886272","MEAN_MOTION":15.30193752,"ECCENTRICITY":7.82e-5,"INCLINATION":53.1601,"RA_OF_ASC_NODE":244.4578,"ARG_OF_PERICENTER":68.7668,"MEAN_ANOMALY":291.3416,"EPHEMERIS_TYPE":0,"CLASSIFICATION_TYPE":"U","NORAD_CAT_ID":58985,"ELEMENT_SET_NO":999,"REV_AT_EPOCH":11819,"BSTAR":2.2815e-5,"MEAN_MOTION_DOT":3.17e-6,"MEAN_MOTION_DDOT":0},{"OBJECT_NAME":"STARLINK-31229","OBJECT_ID":"2024-031X","EPOCH":"2026-03-20T12:03:04.923648","MEAN_MOTION":15.3016374,"ECCENTRICITY":0.0001057,"INCLINATION":53.1574,"RA_OF_ASC_NODE":246.8197,"ARG_OF_PERICENTER":90.155,"MEAN_ANOMALY":269.9571,"EPHEMERIS_TYPE":0,"CLASSIFICATION_TYPE":"U","NORAD_CAT_ID":58986,"ELEMENT_SET_NO":999,"REV_AT_EPOCH":11816,"BSTAR":-0.00016075,"MEAN_MOTION_DOT":-5.111e-5,"MEAN_MOTION_DDOT":0},{"OBJECT_NAME":"STARLINK-31468","OBJECT_ID":"2024-036A","EPOCH":"2026-03-20T04:21:35.322048","MEAN_MOTION":15.30189356,"ECCENTRICITY":0.00014236,"INCLINATION":53.162,"RA_OF_ASC_NODE":29.1167,"ARG_OF_PERICENTER":94.2611,"MEAN_ANOMALY":265.8553,"EPHEMERIS_TYPE":0,"CLASSIFICATION_TYPE":"U","NORAD_CAT_ID":58998,"ELEMENT_SET_NO":999,"REV_AT_EPOCH":11694,"BSTAR":3.124222e-5,"MEAN_MOTION_DOT":5.66e-6,"MEAN_MOTION_DDOT":0},{"OBJECT_NAME":"STARLINK-31440","OBJECT_ID":"2024-036B","EPOCH":"2026-03-20T05:58:40.383264","MEAN_MOTION":15.30199357,"ECCENTRICITY":0.0001231,"INCLINATION":53.1616,"RA_OF_ASC_NODE":28.8174,"ARG_OF_PERICENTER":111.7082,"MEAN_ANOMALY":248.405,"EPHEMERIS_TYPE":0,"CLASSIFICATION_TYPE":"U","NORAD_CAT_ID":58999,"ELEMENT_SET_NO":999,"REV_AT_EPOCH":11613,"BSTAR":0.00012253,"MEAN_MOTION_DOT":3.271e-5,"MEAN_MOTION_DDOT":0},{"OBJECT_NAME":"STARLINK-31529","OBJECT_ID":"2024-036C","EPOCH":"2026-03-20T06:23:44.759328","MEAN_MOTION":15.30199511,"ECCENTRICITY":0.0001189,"INCLINATION":53.1618,"RA_OF_ASC_NODE":26.8028,"ARG_OF_PERICENTER":68.622,"MEAN_ANOMALY":291.4907,"EPHEMERIS_TYPE":0,"CLASSIFICATION_TYPE":"U","NORAD_CAT_ID":59000,"ELEMENT_SET_NO":999,"REV_AT_EPOCH":11689,"BSTAR":3.2556e-6,"MEAN_MOTION_DOT":-2.63e-6,"MEAN_MOTION_DDOT":0},{"OBJECT_NAME":"STARLINK-31431","OBJECT_ID":"2024-036E","EPOCH":"2026-03-20T07:02:30.045120","MEAN_MOTION":15.3019599,"ECCENTRICITY":0.0001226,"INCLINATION":53.1625,"RA_OF_ASC_NODE":29.0967,"ARG_OF_PERICENTER":97.658,"MEAN_ANOMALY":262.456,"EPHEMERIS_TYPE":0,"CLASSIFICATION_TYPE":"U","NORAD_CAT_ID":59002,"ELEMENT_SET_NO":999,"REV_AT_EPOCH":11694,"BSTAR":2.2295e-5,"MEAN_MOTION_DOT":3.01e-6,"MEAN_MOTION_DDOT":0},{"OBJECT_NAME":"STARLINK-31435","OBJECT_ID":"2024-036G","EPOCH":"2026-03-20T02:52:05.035872","MEAN_MOTION":15.3019703,"ECCENTRICITY":0.0001282,"INCLINATION":53.1613,"RA_OF_ASC_NODE":29.4302,"ARG_OF_PERICENTER":87.774,"MEAN_ANOMALY":272.3408,"EPHEMERIS_TYPE":0,"CLASSIFICATION_TYPE":"U","NORAD_CAT_ID":59004,"ELEMENT_SET_NO":999,"REV_AT_EPOCH":11693,"BSTAR":4.1913e-5,"MEAN_MOTION_DOT":8.82e-6,"MEAN_MOTION_DDOT":0},{"OBJECT_NAME":"STARLINK-31484","OBJECT_ID":"2024-036H","EPOCH":"2026-03-20T02:56:39.037056","MEAN_MOTION":15.30186629,"ECCENTRICITY":0.0001162,"INCLINATION":53.1624,"RA_OF_ASC_NODE":29.4482,"ARG_OF_PERICENTER":85.3146,"MEAN_ANOMALY":274.7988,"EPHEMERIS_TYPE":0,"CLASSIFICATION_TYPE":"U","NORAD_CAT_ID":59005,"ELEMENT_SET_NO":999,"REV_AT_EPOCH":11692,"BSTAR":8.8313e-6,"MEAN_MOTION_DOT":-9.8e-7,"MEAN_MOTION_DDOT":0},{"OBJECT_NAME":"STARLINK-31450","OBJECT_ID":"2024-036J","EPOCH":"2026-03-20T06:15:20.674944","MEAN_MOTION":15.30220901,"ECCENTRICITY":0.0001488,"INCLINATION":53.1624,"RA_OF_ASC_NODE":28.8869,"ARG_OF_PERICENTER":93.3671,"MEAN_ANOMALY":266.75,"EPHEMERIS_TYPE":0,"CLASSIFICATION_TYPE":"U","NORAD_CAT_ID":59006,"ELEMENT_SET_NO":999,"REV_AT_EPOCH":11694,"BSTAR":0.00015597,"MEAN_MOTION_DOT":4.266e-5,"MEAN_MOTION_DDOT":0}]
